{
  "type": "FeatureCollection",
  "features": [
    {
      "type": "Feature",
      "properties": {
        "norad_id": 33412,
        "name": "COSMO-SKYMED 3",
        "group": "resource",
        "lat": -43.908248059818675,
        "lon": 17.042962295688906,
        "alt_km": 554.3351744394831,
        "timestamp": "2025-12-20T03:42:47.048788+00:00",
        "meta_object_name": "COSMO-SKYMED 3",
        "meta_object_id": "2008-054A",
        "meta_epoch": "2025-12-19T20:20:23.611200",
        "meta_mean_motion": 15.05421908,
        "meta_eccentricity": 0.0016868,
        "meta_inclination": 97.8468,
        "meta_ra_of_asc_node": 204.3593,
        "meta_arg_of_pericenter": 148.0614,
        "meta_mean_anomaly": 212.1638,
        "meta_ephemeris_type": 0,
        "meta_classification_type": "U",
        "meta_norad_cat_id": 33412,
        "meta_element_set_no": 999,
        "meta_rev_at_epoch": 92994,
        "meta_bstar": 0.00042273,
        "meta_mean_motion_dot": 6.022e-05,
        "meta_mean_motion_ddot": 0,
        "tle_line1": "1 33412U 08054A   25353.84749550  .00006022  00000+0  42273-3 0  9990",
        "tle_line2": "2 33412  97.8468 204.3593 0016868 148.0614 212.1638 15.05421908929947"
      },
      "geometry": {
        "type": "Point",
        "coordinates": [
          17.042962295688906,
          -43.908248059818675
        ]
      }
    },
    {
      "type": "Feature",
      "properties": {
        "norad_id": 33446,
        "name": "YAOGAN-4",
        "group": "resource",
        "lat": -39.15158195001802,
        "lon": -69.31153049464699,
        "alt_km": 618.8195061877905,
        "timestamp": "2025-12-20T03:42:47.048799+00:00",
        "meta_object_name": "YAOGAN-4",
        "meta_object_id": "2008-061A",
        "meta_epoch": "2025-12-19T10:04:29.303904",
        "meta_mean_motion": 14.8270055,
        "meta_eccentricity": 0.0013167,
        "meta_inclination": 97.919,
        "meta_ra_of_asc_node": 283.4536,
        "meta_arg_of_pericenter": 299.8838,
        "meta_mean_anomaly": 60.1067,
        "meta_ephemeris_type": 0,
        "meta_classification_type": "U",
        "meta_norad_cat_id": 33446,
        "meta_element_set_no": 999,
        "meta_rev_at_epoch": 91902,
        "meta_bstar": 0.00012167,
        "meta_mean_motion_dot": 9.29e-06,
        "meta_mean_motion_ddot": 0,
        "tle_line1": "1 33446U 08061A   25353.41978361  .00000929  00000+0  12167-3 0  9991",
        "tle_line2": "2 33446  97.9190 283.4536 0013167 299.8838  60.1067 14.82700550919026"
      },
      "geometry": {
        "type": "Point",
        "coordinates": [
          -69.31153049464699,
          -39.15158195001802
        ]
      }
    },
    {
      "type": "Feature",
      "properties": {
        "norad_id": 33492,
        "name": "GOSAT (IBUKI)",
        "group": "resource",
        "lat": -31.066108018347094,
        "lon": 107.56246918810623,
        "alt_km": 675.4007125401631,
        "timestamp": "2025-12-20T03:42:47.048810+00:00",
        "meta_object_name": "GOSAT (IBUKI)",
        "meta_object_id": "2009-002A",
        "meta_epoch": "2025-12-19T04:56:48.128640",
        "meta_mean_motion": 14.67537344,
        "meta_eccentricity": 9.91e-05,
        "meta_inclination": 98.0771,
        "meta_ra_of_asc_node": 101.7196,
        "meta_arg_of_pericenter": 100.0781,
        "meta_mean_anomaly": 260.0536,
        "meta_ephemeris_type": 0,
        "meta_classification_type": "U",
        "meta_norad_cat_id": 33492,
        "meta_element_set_no": 999,
        "meta_rev_at_epoch": 90506,
        "meta_bstar": 0.00011356,
        "meta_mean_motion_dot": 5.96e-06,
        "meta_mean_motion_ddot": 0,
        "tle_line1": "1 33492U 09002A   25353.20611260  .00000596  00000+0  11356-3 0  9996",
        "tle_line2": "2 33492  98.0771 101.7196 0000991 100.0781 260.0536 14.67537344905062"
      },
      "geometry": {
        "type": "Point",
        "coordinates": [
          107.56246918810623,
          -31.066108018347094
        ]
      }
    },
    {
      "type": "Feature",
      "properties": {
        "norad_id": 35681,
        "name": "DEIMOS-1",
        "group": "resource",
        "lat": -62.965789893297476,
        "lon": -40.99239221841138,
        "alt_km": 654.2980149699833,
        "timestamp": "2025-12-20T03:42:47.048821+00:00",
        "meta_object_name": "DEIMOS-1",
        "meta_object_id": "2009-041A",
        "meta_epoch": "2025-12-19T20:05:52.230048",
        "meta_mean_motion": 14.74964702,
        "meta_eccentricity": 0.0002614,
        "meta_inclination": 97.7142,
        "meta_ra_of_asc_node": 154.11,
        "meta_arg_of_pericenter": 68.2929,
        "meta_mean_anomaly": 291.8559,
        "meta_ephemeris_type": 0,
        "meta_classification_type": "U",
        "meta_norad_cat_id": 35681,
        "meta_element_set_no": 999,
        "meta_rev_at_epoch": 88044,
        "meta_bstar": 0.00014151,
        "meta_mean_motion_dot": 9.04e-06,
        "meta_mean_motion_ddot": 0,
        "tle_line1": "1 35681U 09041A   25353.83741007  .00000904  00000+0  14151-3 0  9992",
        "tle_line2": "2 35681  97.7142 154.1100 0002614  68.2929 291.8559 14.74964702880443"
      },
      "geometry": {
        "type": "Point",
        "coordinates": [
          -40.99239221841138,
          -62.965789893297476
        ]
      }
    },
    {
      "type": "Feature",
      "properties": {
        "norad_id": 35682,
        "name": "DUBAISAT-1",
        "group": "resource",
        "lat": 10.068624051007603,
        "lon": -53.84738124307985,
        "alt_km": 651.0707474631945,
        "timestamp": "2025-12-20T03:42:47.048832+00:00",
        "meta_object_name": "DUBAISAT-1",
        "meta_object_id": "2009-041B",
        "meta_epoch": "2025-12-19T09:01:52.608576",
        "meta_mean_motion": 14.74621138,
        "meta_eccentricity": 0.0009289,
        "meta_inclination": 97.9797,
        "meta_ra_of_asc_node": 123.9586,
        "meta_arg_of_pericenter": 290.7501,
        "meta_mean_anomaly": 69.2712,
        "meta_ephemeris_type": 0,
        "meta_classification_type": "U",
        "meta_norad_cat_id": 35682,
        "meta_element_set_no": 999,
        "meta_rev_at_epoch": 87859,
        "meta_bstar": 0.00014564,
        "meta_mean_motion_dot": 9.21e-06,
        "meta_mean_motion_ddot": 0,
        "tle_line1": "1 35682U 09041B   25353.37630334  .00000921  00000+0  14564-3 0  9999",
        "tle_line2": "2 35682  97.9797 123.9586 0009289 290.7501  69.2712 14.74621138878591"
      },
      "geometry": {
        "type": "Point",
        "coordinates": [
          -53.84738124307985,
          10.068624051007603
        ]
      }
    },
    {
      "type": "Feature",
      "properties": {
        "norad_id": 35931,
        "name": "OCEANSAT-2",
        "group": "resource",
        "lat": 30.978373530926397,
        "lon": 178.982372602013,
        "alt_km": 899.6910101266349,
        "timestamp": "2025-12-20T03:42:47.048843+00:00",
        "meta_object_name": "OCEANSAT-2",
        "meta_object_id": "2009-051A",
        "meta_epoch": "2025-12-19T20:08:37.877856",
        "meta_mean_motion": 13.99623219,
        "meta_eccentricity": 0.0016034,
        "meta_inclination": 98.2217,
        "meta_ra_of_asc_node": 353.7196,
        "meta_arg_of_pericenter": 26.4548,
        "meta_mean_anomaly": 333.7434,
        "meta_ephemeris_type": 0,
        "meta_classification_type": "U",
        "meta_norad_cat_id": 35931,
        "meta_element_set_no": 999,
        "meta_rev_at_epoch": 85424,
        "meta_bstar": -6.3654e-05,
        "meta_mean_motion_dot": -1.31e-06,
        "meta_mean_motion_ddot": 0,
        "tle_line1": "1 35931U 09051A   25353.83932729 -.00000131  00000+0 -63654-4 0  9991",
        "tle_line2": "2 35931  98.2217 353.7196 0016034  26.4548 333.7434 13.99623219854244"
      },
      "geometry": {
        "type": "Point",
        "coordinates": [
          178.982372602013,
          30.978373530926397
        ]
      }
    },
    {
      "type": "Feature",
      "properties": {
        "norad_id": 35946,
        "name": "WORLDVIEW-2 (WV-2)",
        "group": "resource",
        "lat": -25.401869216034644,
        "lon": -118.92428947365606,
        "alt_km": 774.7682414862202,
        "timestamp": "2025-12-20T03:42:47.048853+00:00",
        "meta_object_name": "WORLDVIEW-2 (WV-2)",
        "meta_object_id": "2009-055A",
        "meta_epoch": "2025-12-19T18:24:31.525056",
        "meta_mean_motion": 14.37726879,
        "meta_eccentricity": 0.0004952,
        "meta_inclination": 98.4781,
        "meta_ra_of_asc_node": 64.7551,
        "meta_arg_of_pericenter": 53.4721,
        "meta_mean_anomaly": 306.6921,
        "meta_ephemeris_type": 0,
        "meta_classification_type": "U",
        "meta_norad_cat_id": 35946,
        "meta_element_set_no": 999,
        "meta_rev_at_epoch": 84986,
        "meta_bstar": 5.4631e-05,
        "meta_mean_motion_dot": 1.21e-06,
        "meta_mean_motion_ddot": 0,
        "tle_line1": "1 35946U 09055A   25353.76703154  .00000121  00000+0  54631-4 0  9993",
        "tle_line2": "2 35946  98.4781  64.7551 0004952  53.4721 306.6921 14.37726879849862"
      },
      "geometry": {
        "type": "Point",
        "coordinates": [
          -118.92428947365606,
          -25.401869216034644
        ]
      }
    }
  ]
}